[{"OBJECT_NAME":"STARLINK-6169","OBJECT_ID":"2023-083P","EPOCH":"2026-03-09T01:06:03.264768","MEAN_MOTION":15.02534576,"ECCENTRICITY":0.00014482,"INCLINATION":43.0038,"RA_OF_ASC_NODE":85.2649,"ARG_OF_PERICENTER":270.0227,"MEAN_ANOMALY":90.0449,"EPHEMERIS_TYPE":0,"CLASSIFICATION_TYPE":"U","NORAD_CAT_ID":56889,"ELEMENT_SET_NO":999,"REV_AT_EPOCH":15157,"BSTAR":3.301894e-6,"MEAN_MOTION_DOT":-1.59e-6,"MEAN_MOTION_DDOT":0},{"OBJECT_NAME":"ARIANE 5 R\/B","OBJECT_ID":"2004-049H","EPOCH":"2026-03-09T21:39:04.642848","MEAN_MOTION":14.85266245,"ECCENTRICITY":0.00839202,"INCLINATION":98.2628,"RA_OF_ASC_NODE":237.3671,"ARG_OF_PERICENTER":351.2342,"MEAN_ANOMALY":8.7401,"EPHEMERIS_TYPE":0,"CLASSIFICATION_TYPE":"U","NORAD_CAT_ID":28499,"ELEMENT_SET_NO":999,"REV_AT_EPOCH":14582,"BSTAR":0.0001160231,"MEAN_MOTION_DOT":9.95e-6,"MEAN_MOTION_DDOT":0}]
